<?xml version="1.0" encoding="UTF-8"?>
<kml xmlns="http://www.opengis.net/kml/2.2" xmlns:gx="http://www.google.com/kml/ext/2.2"><Document><Folder><name>Mining lease</name><Placemark><name>Lease ML-2231</name><ExtendedData><Data name="lease_id"><value>ML-2231</value></Data><Data name="mineral"><value>Iron ore</value></Data><Data name="lessee"><value>Demo Minerals Pvt Ltd</value></Data></ExtendedData><MultiGeometry><Point><coordinates>76.55,15.08</coordinates></Point><Polygon><outerBoundaryIs><LinearRing><coordinates>76.5444192859,15.0745774008 76.5555807141,15.0745774008 76.555580997,15.0854224591 76.544419003,15.0854224591 76.5444192859,15.0745774008</coordinates></LinearRing></outerBoundaryIs></Polygon></MultiGeometry></Placemark></Folder><Folder><name>Pits</name><Placemark><name>Pit A</name><ExtendedData><Data name="bench_count"><value>6</value></Data></ExtendedData><Polygon><outerBoundaryIs><LinearRing><coordinates>76.5462794336,15.0795481073 76.5499999961,15.0795481073 76.5500000275,15.0831631263 76.5462794021,15.0831631263 76.5462794336,15.0795481073</coordinates></LinearRing></outerBoundaryIs><innerBoundaryIs><LinearRing><coordinates>76.5476746416,15.0809037467 76.5486047881,15.0809037467 76.54860479,15.0818075015 76.5476746396,15.0818075015 76.5476746416,15.0809037467</coordinates></LinearRing></innerBoundaryIs></Polygon></Placemark><Placemark><name>Pit B (digitising error)</name><Polygon><outerBoundaryIs><LinearRing><coordinates>76.5523253565,15.0777406007 76.5541856416,15.0795480839 76.5541856416,15.0777406007 76.5523253565,15.0795480839 76.5523253565,15.0777406007</coordinates></LinearRing></outerBoundaryIs></Polygon></Placemark></Folder><Folder><name>Haul roads</name><Placemark><name>Ramp R1</name><description><![CDATA[<html><body><table border="1"><tr><th colspan="2">Feature</th></tr><tr><td>ROAD_ID</td><td>R1</td></tr><tr><td>WIDTH_M</td><td>18</td></tr><tr><td>SURFACE</td><td>Murrum</td></tr></table></body></html>]]></description><LineString><altitudeMode>absolute</altitudeMode><coordinates>76.5453492871,15.0759330547,610 76.5472095722,15.0768368404,628 76.5486047861,15.0772887308,645 76.55,15.0786443676,652</coordinates></LineString></Placemark><Placemark><name>Weighbridge</name><Point><coordinates>76.54516325854539,15.07575229975469</coordinates></Point></Placemark></Folder><Folder><name>Survey flights</name><Placemark><name>Flight 2026-10-01</name><gx:Track><altitudeMode>absolute</altitudeMode><when>2026-10-01T05:00:00Z</when><when>2026-10-01T05:01:00Z</when><when>2026-10-01T05:02:00Z</when><gx:coord>76.54441914447574 15.074577400835327 640</gx:coord> <gx:coord>76.55 15.080000000000007 760</gx:coord> <gx:coord>76.55558085552425 15.08542245915976 760</gx:coord></gx:Track></Placemark><Placemark><name>Orthomosaic tile</name><GroundOverlay><LatLonBox><north>15.09</north><south>15.07</south><east>76.56</east><west>76.54</west></LatLonBox></GroundOverlay></Placemark></Folder></Document></kml>